[{"COMMENT":"GENERATED VIA SPACETRACK.ORG API","ORIGINATOR":"18 SPCS","NORAD_CAT_ID":"45120","OBJECT_NAME":"VPM","OBJECT_TYPE":"PAYLOAD","CLASSIFICATION_TYPE":"U","INTLDES":"19071K","EPOCH":"2020-09-01 12:28:42","EPOCH_MICROSECONDS":"633696","MEAN_MOTION":"15.34458482","ECCENTRICITY":"0.0011365","INCLINATION":"51.6441","RA_OF_ASC_NODE":"355.1037","ARG_OF_PERICENTER":"329.7528","MEAN_ANOMALY":"30.2797","EPHEMERIS_TYPE":"0","ELEMENT_SET_NO":"999","REV_AT_EPOCH":"3269","BSTAR":"0.000177","MEAN_MOTION_DOT":"0.0000563","MEAN_MOTION_DDOT":"0","FILE":"2812600","TLE_LINE0":"0 VPM","TLE_LINE1":"1 45120U 19071K   20245.51993789 +.00005630 +00000-0 +17700-3 0  9996","TLE_LINE2":"2 45120 051.6441 355.1037 0011365 329.7528 030.2797 15.34458482032693","OBJECT_ID":"2019-071K","OBJECT_NUMBER":"45120","SEMIMAJOR_AXIS":"6840.666","PERIOD":"93.844","APOGEE":"470.305","PERIGEE":"454.757","DECAYED":"0"},{"COMMENT":"GENERATED VIA SPACETRACK.ORG API","ORIGINATOR":"18 SPCS","NORAD_CAT_ID":"45120","OBJECT_NAME":"VPM","OBJECT_TYPE":"PAYLOAD","CLASSIFICATION_TYPE":"U","INTLDES":"19071K","EPOCH":"2020-09-01 18:43:50","EPOCH_MICROSECONDS":"579328","MEAN_MOTION":"15.34461689","ECCENTRICITY":"0.0011379","INCLINATION":"51.6441","RA_OF_ASC_NODE":"353.8432","ARG_OF_PERICENTER":"330.6275","MEAN_ANOMALY":"29.4066","EPHEMERIS_TYPE":"0","ELEMENT_SET_NO":"999","REV_AT_EPOCH":"3273","BSTAR":"0.00018161","MEAN_MOTION_DOT":"0.00005788","MEAN_MOTION_DDOT":"0","FILE":"2812770","TLE_LINE0":"0 VPM","TLE_LINE1":"1 45120U 19071K   20245.78044652  .00005788  00000-0  18161-3 0  9997","TLE_LINE2":"2 45120  51.6441 353.8432 0011379 330.6275  29.4066 15.34461689 32739","OBJECT_ID":"2019-071K","OBJECT_NUMBER":"45120","SEMIMAJOR_AXIS":"6840.656","PERIOD":"93.843","APOGEE":"470.305","PERIGEE":"454.737","DECAYED":"0"},{"COMMENT":"GENERATED VIA SPACETRACK.ORG API","ORIGINATOR":"18 SPCS","NORAD_CAT_ID":"45120","OBJECT_NAME":"VPM","OBJECT_TYPE":"PAYLOAD","CLASSIFICATION_TYPE":"U","INTLDES":"19071K","EPOCH":"2020-09-02 13:29:14","EPOCH_MICROSECONDS":"97408","MEAN_MOTION":"15.34471027","ECCENTRICITY":"0.0011427","INCLINATION":"51.6443","RA_OF_ASC_NODE":"350.0616","ARG_OF_PERICENTER":"333.5355","MEAN_ANOMALY":"26.5043","EPHEMERIS_TYPE":"0","ELEMENT_SET_NO":"999","REV_AT_EPOCH":"3285","BSTAR":"0.00017228","MEAN_MOTION_DOT":"0.00005472","MEAN_MOTION_DDOT":"0","FILE":"2813120","TLE_LINE0":"0 VPM","TLE_LINE1":"1 45120U 19071K   20246.56196872 +.00005472 +00000-0 +17228-3 0  9999","TLE_LINE2":"2 45120 051.6443 350.0616 0011427 333.5355 026.5043 15.34471027032852","OBJECT_ID":"2019-071K","OBJECT_NUMBER":"45120","SEMIMAJOR_AXIS":"6840.629","PERIOD":"93.843","APOGEE":"470.310","PERIGEE":"454.677","DECAYED":"0"},{"COMMENT":"GENERATED VIA SPACETRACK.ORG API","ORIGINATOR":"18 SPCS","NORAD_CAT_ID":"45120","OBJECT_NAME":"VPM","OBJECT_TYPE":"PAYLOAD","CLASSIFICATION_TYPE":"U","INTLDES":"19071K","EPOCH":"2020-09-02 18:10:34","EPOCH_MICROSECONDS":"925952","MEAN_MOTION":"15.34472587","ECCENTRICITY":"0.0011449","INCLINATION":"51.6443","RA_OF_ASC_NODE":"349.1163","ARG_OF_PERICENTER":"334.215","MEAN_ANOMALY":"25.8261","EPHEMERIS_TYPE":"0","ELEMENT_SET_NO":"999","REV_AT_EPOCH":"3288","BSTAR":"0.00015968","MEAN_MOTION_DOT":"0.00005044","MEAN_MOTION_DDOT":"0","FILE":"2813294","TLE_LINE0":"0 VPM","TLE_LINE1":"1 45120U 19071K   20246.75734868 +.00005044 +00000-0 +15968-3 0  9997","TLE_LINE2":"2 45120 051.6443 349.1163 0011449 334.2150 025.8261 15.34472587032882","OBJECT_ID":"2019-071K","OBJECT_NUMBER":"45120","SEMIMAJOR_AXIS":"6840.624","PERIOD":"93.843","APOGEE":"470.321","PERIGEE":"454.657","DECAYED":"0"},{"COMMENT":"GENERATED VIA SPACETRACK.ORG API","ORIGINATOR":"18 SPCS","NORAD_CAT_ID":"45120","OBJECT_NAME":"VPM","OBJECT_TYPE":"PAYLOAD","CLASSIFICATION_TYPE":"U","INTLDES":"19071K","EPOCH":"2020-09-03 06:40:50","EPOCH_MICROSECONDS":"350656","MEAN_MOTION":"15.34476959","ECCENTRICITY":"0.001148","INCLINATION":"51.6444","RA_OF_ASC_NODE":"346.5952","ARG_OF_PERICENTER":"336.2282","MEAN_ANOMALY":"23.8168","EPHEMERIS_TYPE":"0","ELEMENT_SET_NO":"999","REV_AT_EPOCH":"3296","BSTAR":"0.00013413","MEAN_MOTION_DOT":"0.00004175","MEAN_MOTION_DDOT":"0","FILE":"2813601","TLE_LINE0":"0 VPM","TLE_LINE1":"1 45120U 19071K   20247.27836054  .00004175  00000-0  13413-3 0  9992","TLE_LINE2":"2 45120  51.6444 346.5952 0011480 336.2282  23.8168 15.34476959 32963","OBJECT_ID":"2019-071K","OBJECT_NUMBER":"45120","SEMIMAJOR_AXIS":"6840.611","PERIOD":"93.843","APOGEE":"470.329","PERIGEE":"454.623","DECAYED":"0"},{"COMMENT":"GENERATED VIA SPACETRACK.ORG API","ORIGINATOR":"18 SPCS","NORAD_CAT_ID":"45120","OBJECT_NAME":"VPM","OBJECT_TYPE":"PAYLOAD","CLASSIFICATION_TYPE":"U","INTLDES":"19071K","EPOCH":"2020-09-03 12:55:58","EPOCH_MICROSECONDS":"17216","MEAN_MOTION":"15.34478616","ECCENTRICITY":"0.0011478","INCLINATION":"51.6444","RA_OF_ASC_NODE":"345.3347","ARG_OF_PERICENTER":"337.1959","MEAN_ANOMALY":"22.8513","EPHEMERIS_TYPE":"0","ELEMENT_SET_NO":"999","REV_AT_EPOCH":"3300","BSTAR":"0.00012682","MEAN_MOTION_DOT":"0.00003927","MEAN_MOTION_DDOT":"0","FILE":"2813871","TLE_LINE0":"0 VPM","TLE_LINE1":"1 45120U 19071K   20247.53886594 +.00003927 +00000-0 +12682-3 0  9996","TLE_LINE2":"2 45120 051.6444 345.3347 0011478 337.1959 022.8513 15.34478616033007","OBJECT_ID":"2019-071K","OBJECT_NUMBER":"45120","SEMIMAJOR_AXIS":"6840.606","PERIOD":"93.842","APOGEE":"470.323","PERIGEE":"454.619","DECAYED":"0"},{"COMMENT":"GENERATED VIA SPACETRACK.ORG API","ORIGINATOR":"18 SPCS","NORAD_CAT_ID":"45120","OBJECT_NAME":"VPM","OBJECT_TYPE":"PAYLOAD","CLASSIFICATION_TYPE":"U","INTLDES":"19071K","EPOCH":"2020-09-03 16:03:31","EPOCH_MICROSECONDS":"842720","MEAN_MOTION":"15.34479393","ECCENTRICITY":"0.0011493","INCLINATION":"51.6444","RA_OF_ASC_NODE":"344.7045","ARG_OF_PERICENTER":"337.6964","MEAN_ANOMALY":"22.3517","EPHEMERIS_TYPE":"0","ELEMENT_SET_NO":"999","REV_AT_EPOCH":"3302","BSTAR":"0.00011824","MEAN_MOTION_DOT":"0.00003635","MEAN_MOTION_DDOT":"0","FILE":"2813944","TLE_LINE0":"0 VPM","TLE_LINE1":"1 45120U 19071K   20247.66911855 +.00003635 +00000-0 +11824-3 0  9992","TLE_LINE2":"2 45120 051.6444 344.7045 0011493 337.6964 022.3517 15.34479393033027","OBJECT_ID":"2019-071K","OBJECT_NUMBER":"45120","SEMIMAJOR_AXIS":"6840.604","PERIOD":"93.842","APOGEE":"470.331","PERIGEE":"454.607","DECAYED":"0"},{"COMMENT":"GENERATED VIA SPACETRACK.ORG API","ORIGINATOR":"18 SPCS","NORAD_CAT_ID":"45120","OBJECT_NAME":"VPM","OBJECT_TYPE":"PAYLOAD","CLASSIFICATION_TYPE":"U","INTLDES":"19071K","EPOCH":"2020-09-04 10:48:54","EPOCH_MICROSECONDS":"616032","MEAN_MOTION":"15.34484891","ECCENTRICITY":"0.0011522","INCLINATION":"51.6443","RA_OF_ASC_NODE":"340.9228","ARG_OF_PERICENTER":"340.6237","MEAN_ANOMALY":"19.4306","EPHEMERIS_TYPE":"0","ELEMENT_SET_NO":"999","REV_AT_EPOCH":"3314","BSTAR":"0.000093572","MEAN_MOTION_DOT":"0.00002796","MEAN_MOTION_DDOT":"0","FILE":"2814283","TLE_LINE0":"0 VPM","TLE_LINE1":"1 45120U 19071K   20248.45063213  .00002796  00000-0  93572-4 0  9994","TLE_LINE2":"2 45120  51.6443 340.9228 0011522 340.6237  19.4306 15.34484891 33142","OBJECT_ID":"2019-071K","OBJECT_NUMBER":"45120","SEMIMAJOR_AXIS":"6840.587","PERIOD":"93.842","APOGEE":"470.334","PERIGEE":"454.571","DECAYED":"0"},{"COMMENT":"GENERATED VIA SPACETRACK.ORG API","ORIGINATOR":"18 SPCS","NORAD_CAT_ID":"45120","OBJECT_NAME":"VPM","OBJECT_TYPE":"PAYLOAD","CLASSIFICATION_TYPE":"U","INTLDES":"19071K","EPOCH":"2020-09-04 17:04:02","EPOCH_MICROSECONDS":"180640","MEAN_MOTION":"15.34486155","ECCENTRICITY":"0.0011539","INCLINATION":"51.6442","RA_OF_ASC_NODE":"339.6623","ARG_OF_PERICENTER":"341.6329","MEAN_ANOMALY":"18.4235","EPHEMERIS_TYPE":"0","ELEMENT_SET_NO":"999","REV_AT_EPOCH":"3318","BSTAR":"0.000084427","MEAN_MOTION_DOT":"0.00002485","MEAN_MOTION_DDOT":"0","FILE":"2814552","TLE_LINE0":"0 VPM","TLE_LINE1":"1 45120U 19071K   20248.71113635 +.00002485 +00000-0 +84427-4 0  9991","TLE_LINE2":"2 45120 051.6442 339.6623 0011539 341.6329 018.4235 15.34486155033185","OBJECT_ID":"2019-071K","OBJECT_NUMBER":"45120","SEMIMAJOR_AXIS":"6840.584","PERIOD":"93.842","APOGEE":"470.342","PERIGEE":"454.555","DECAYED":"0"},{"COMMENT":"GENERATED VIA SPACETRACK.ORG API","ORIGINATOR":"18 SPCS","NORAD_CAT_ID":"45120","OBJECT_NAME":"VPM","OBJECT_TYPE":"PAYLOAD","CLASSIFICATION_TYPE":"U","INTLDES":"19071K","EPOCH":"2020-09-05 11:49:24","EPOCH_MICROSECONDS":"730176","MEAN_MOTION":"15.34490175","ECCENTRICITY":"0.001155","INCLINATION":"51.6441","RA_OF_ASC_NODE":"335.8806","ARG_OF_PERICENTER":"344.4008","MEAN_ANOMALY":"15.6617","EPHEMERIS_TYPE":"0","ELEMENT_SET_NO":"999","REV_AT_EPOCH":"3330","BSTAR":"0.000079417","MEAN_MOTION_DOT":"0.00002315","MEAN_MOTION_DDOT":"0","FILE":"2814895","TLE_LINE0":"0 VPM","TLE_LINE1":"1 45120U 19071K   20249.49264734  .00002315  00000-0  79417-4 0  9999","TLE_LINE2":"2 45120  51.6441 335.8806 0011550 344.4008  15.6617 15.34490175 33307","OBJECT_ID":"2019-071K","OBJECT_NUMBER":"45120","SEMIMAJOR_AXIS":"6840.572","PERIOD":"93.842","APOGEE":"470.338","PERIGEE":"454.536","DECAYED":"0"},{"COMMENT":"GENERATED VIA SPACETRACK.ORG API","ORIGINATOR":"18 SPCS","NORAD_CAT_ID":"45120","OBJECT_NAME":"VPM","OBJECT_TYPE":"PAYLOAD","CLASSIFICATION_TYPE":"U","INTLDES":"19071K","EPOCH":"2020-09-05 16:30:45","EPOCH_MICROSECONDS":"337536","MEAN_MOTION":"15.3449115","ECCENTRICITY":"0.0011563","INCLINATION":"51.644","RA_OF_ASC_NODE":"334.9352","ARG_OF_PERICENTER":"345.1436","MEAN_ANOMALY":"14.9205","EPHEMERIS_TYPE":"0","ELEMENT_SET_NO":"999","REV_AT_EPOCH":"3333","BSTAR":"0.00007575","MEAN_MOTION_DOT":"0.00002191","MEAN_MOTION_DDOT":"0","FILE":"2815164","TLE_LINE0":"0 VPM","TLE_LINE1":"1 45120U 19071K   20249.68802474 +.00002191 +00000-0 +75750-4 0  9997","TLE_LINE2":"2 45120 051.6440 334.9352 0011563 345.1436 014.9205 15.34491150033331","OBJECT_ID":"2019-071K","OBJECT_NUMBER":"45120","SEMIMAJOR_AXIS":"6840.569","PERIOD":"93.842","APOGEE":"470.344","PERIGEE":"454.524","DECAYED":"0"}]